From: horizons@ssd.jpl.nasa.gov (Horizons Ephemeris System)
Subject: [Horizons] SMALL BODY #C(500@10)_T(Levy (C/1991 L3)) (1/1)
Date: February 23, 2021 at 4:21:01 PM PST

Automated mail xmit by MAIL_REQUEST, PID= 22901 Tue Feb 23 16:21:01 2021
++++++++++++++++++++++++++++++++ (part 1 of 1)  +++++++++++++++++++++++++++++++
*******************************************************************************
JPL/HORIZONS                  Levy (C/1991 L3)             2021-Feb-23 16:21:01
Rec #:90002038 (+COV) Soln.date: 2014-Jun-13_19:42:29    # obs: 125 (1991-1993)

IAU76/J2000 helio. ecliptic osc. elements (au, days, deg., period=Julian yrs):

 EPOCH=  2448547.5 ! 1991-Oct-18.0000000 (TDB)    RMSW= n.a.
  EC= .9288178630692924   QR= .9825594709493261   TP= 2448445.6946460437
  OM= 329.4309837211803   W= 41.47119826431925    IN= 19.19030996858108
  A= 13.80345566059361    MA= 1.95655903017816    ADIST= 26.6243518502379
  PER= 51.284951739993    N= .019218626           ANGMOM= .023681351
  DAN= 1.11747            DDN= 6.23317            L= 9.283304899999999
  B= 12.5730408           MOID= .0749881          TP= 1991-Jul-08.1946460437

Comet physical (GM= km^3/s^2; RAD= km):
  GM= n.a.                RAD= 5.8
  M1=  8.8      M2=  14.5     k1=  15.    k2=  5.      PHCOF=  .030

COMET comments 
1: soln ref.= JPL#9, data arc: 1991-06-14 to 1993-01-21
2: k1=15., k2=5., phase coef.=0.03;
*******************************************************************************


*******************************************************************************
Ephemeris / MAIL_REQUEST Tue Feb 23 16:21:01 2021 Pasadena, USA  / Horizons
*******************************************************************************
Target body name: Levy (C/1991 L3)                {source: JPL#9}
Center body name: Sun (10)                        {source: DE431}
Center-site name: BODY CENTER
*******************************************************************************
Start time      : A.D. 1990-Jan-01 00:00:00.0000 TDB
Stop  time      : A.D. 2020-Dec-31 00:00:00.0000 TDB
Step-size       : 10080 minutes
*******************************************************************************
Center geodetic : 0.00000000,0.00000000,0.0000000 {E-lon(deg),Lat(deg),Alt(km)}
Center cylindric: 0.00000000,0.00000000,0.0000000 {E-lon(deg),Dxy(km),Dz(km)}
Center radii    : 696000.0 x 696000.0 x 696000.0 k{Equator, meridian, pole}    
Small perturbers: Yes                             {source: SB431-N16}
Output units    : AU-D
Output type     : GEOMETRIC cartesian states
Output format   : 6 (LT, range, and range-rate)
Reference frame : Ecliptic of J2000.0
*******************************************************************************
Initial IAU76/J2000 heliocentric ecliptic osculating elements (au, days, deg.):
 EPOCH=  2448547.5 ! 1991-Oct-18.0000000 (TDB)    RMSW= n.a.                  
  EC= .9288178630692924   QR= .9825594709493261   TP= 2448445.6946460437      
  OM= 329.4309837211803   W= 41.47119826431925    IN= 19.19030996858108       
 Equivalent ICRF heliocentric equatorial cartesian coordinates (au, au/d):
  X=-3.433220288553657E-01  Y= 1.427654891309058E+00  Z= 1.126982555611698E+00
 VX=-1.454062473704840E-02 VY= 8.461908740901369E-03 VZ= 3.906794953828684E-03
Comet physical (GM= km^3/s^2; RAD= km):                                        
  GM= n.a.                RAD= 5.8                                            
  M1=  8.8      M2=  14.5     k1=  15.    k2=  5.      PHCOF=  .030           
*******************************************************************************
           JDTDB,            Calendar Date (TDB),                     LT,                     RG,                     RR,
**************************************************************************************************************************
$$SOE
2452092.500000000, A.D. 2001-Jul-02 00:00:00.0000,  1.137788186831354E-01,  1.970019176700047E+01,  2.687209249739955E-03,
2452099.500000000, A.D. 2001-Jul-09 00:00:00.0000,  1.138873616693366E-01,  1.971898540247565E+01,  2.682402527809762E-03,
2452106.500000000, A.D. 2001-Jul-16 00:00:00.0000,  1.139957105224470E-01,  1.973774542484812E+01,  2.677605409460078E-03,
2452113.500000000, A.D. 2001-Jul-23 00:00:00.0000,  1.141038656126903E-01,  1.975647189822014E+01,  2.672816818329433E-03,
2452120.500000000, A.D. 2001-Jul-30 00:00:00.0000,  1.142118272434643E-01,  1.977516487512341E+01,  2.668034611190042E-03,
2452127.500000000, A.D. 2001-Aug-06 00:00:00.0000,  1.143195956410595E-01,  1.979382439473894E+01,  2.663257628772812E-03,
2452134.500000000, A.D. 2001-Aug-13 00:00:00.0000,  1.144271710332658E-01,  1.981245049650728E+01,  2.658486873942257E-03,
2452141.500000000, A.D. 2001-Aug-20 00:00:00.0000,  1.145345536922321E-01,  1.983104322754959E+01,  2.653723192113174E-03,
2452148.500000000, A.D. 2001-Aug-27 00:00:00.0000,  1.146417439060964E-01,  1.984960263775540E+01,  2.648966599022820E-03,
2452155.500000000, A.D. 2001-Sep-03 00:00:00.0000,  1.147487419562167E-01,  1.986812877584034E+01,  2.644216823478068E-03,
2452162.500000000, A.D. 2001-Sep-10 00:00:00.0000,  1.148555481128128E-01,  1.988662168859151E+01,  2.639473612055949E-03,
2452169.500000000, A.D. 2001-Sep-17 00:00:00.0000,  1.149621626379016E-01,  1.990508142137576E+01,  2.634736819397053E-03,
2452176.500000000, A.D. 2001-Sep-24 00:00:00.0000,  1.150685857902702E-01,  1.992350801900064E+01,  2.630006433217577E-03,
2452183.500000000, A.D. 2001-Oct-01 00:00:00.0000,  1.151748178309819E-01,  1.994190152666792E+01,  2.625282576237461E-03,
2452190.500000000, A.D. 2001-Oct-08 00:00:00.0000,  1.152808590279988E-01,  1.996026199077373E+01,  2.620565444807624E-03,
2452197.500000000, A.D. 2001-Oct-15 00:00:00.0000,  1.153867096542242E-01,  1.997858945856988E+01,  2.615854997456730E-03,
2452204.500000000, A.D. 2001-Oct-22 00:00:00.0000,  1.154923699641691E-01,  1.999688397412353E+01,  2.611150251975351E-03,
2452211.500000000, A.D. 2001-Oct-29 00:00:00.0000,  1.155978401561645E-01,  2.001514557177466E+01,  2.606449747122985E-03,
2452218.500000000, A.D. 2001-Nov-05 00:00:00.0000,  1.157031204046859E-01,  2.003337428173274E+01,  2.601754065236667E-03,
2452225.500000000, A.D. 2001-Nov-12 00:00:00.0000,  1.158082109426773E-01,  2.005157014433080E+01,  2.597065047977324E-03,
2452232.500000000, A.D. 2001-Nov-19 00:00:00.0000,  1.159131120639460E-01,  2.006973321043998E+01,  2.592383738663639E-03,
2452239.500000000, A.D. 2001-Nov-26 00:00:00.0000,  1.160178240889286E-01,  2.008786353554218E+01,  2.587710511169770E-03,
2452246.500000000, A.D. 2001-Dec-03 00:00:00.0000,  1.161223473480914E-01,  2.010596117685584E+01,  2.583045537075694E-03,
2452253.500000000, A.D. 2001-Dec-10 00:00:00.0000,  1.162266821779294E-01,  2.012402619264326E+01,  2.578388955595447E-03,
2452260.500000000, A.D. 2001-Dec-17 00:00:00.0000,  1.163308289206596E-01,  2.014205864215750E+01,  2.573740913257679E-03,
2452267.500000000, A.D. 2001-Dec-24 00:00:00.0000,  1.164347879247363E-01,  2.016005858573155E+01,  2.569101572445766E-03,
2452274.500000000, A.D. 2001-Dec-31 00:00:00.0000,  1.165385595453464E-01,  2.017802608486409E+01,  2.564471096977420E-03,
2452281.500000000, A.D. 2002-Jan-07 00:00:00.0000,  1.166421441425775E-01,  2.019596120190238E+01,  2.559849522963518E-03,
2452288.500000000, A.D. 2002-Jan-14 00:00:00.0000,  1.167455420678919E-01,  2.021386399770023E+01,  2.555236262818268E-03,
2452295.500000000, A.D. 2002-Jan-21 00:00:00.0000,  1.168487536251626E-01,  2.023173452487159E+01,  2.550629565673609E-03,
2452302.500000000, A.D. 2002-Jan-28 00:00:00.0000,  1.169517790477939E-01,  2.024957282382920E+01,  2.546028206153500E-03,
2452309.500000000, A.D. 2002-Feb-04 00:00:00.0000,  1.170546185669352E-01,  2.026737893459531E+01,  2.541433194414011E-03,
2452316.500000000, A.D. 2002-Feb-11 00:00:00.0000,  1.171572724647486E-01,  2.028515290602479E+01,  2.536845635309751E-03,
2452323.500000000, A.D. 2002-Feb-18 00:00:00.0000,  1.172597410484915E-01,  2.030289479131761E+01,  2.532265704308743E-03,
2452330.500000000, A.D. 2002-Feb-25 00:00:00.0000,  1.173620246221262E-01,  2.032060464310318E+01,  2.527693150772442E-03,
2452337.500000000, A.D. 2002-Mar-04 00:00:00.0000,  1.174641234772646E-01,  2.033828251187259E+01,  2.523127646078283E-03,
2452344.500000000, A.D. 2002-Mar-11 00:00:00.0000,  1.175660378927245E-01,  2.035592844590160E+01,  2.518568895195218E-03,
2452351.500000000, A.D. 2002-Mar-18 00:00:00.0000,  1.176677681367373E-01,  2.037354249163307E+01,  2.514016673504382E-03,
2452358.500000000, A.D. 2002-Mar-25 00:00:00.0000,  1.177693144701915E-01,  2.039112469423840E+01,  2.509470843384628E-03,
2452365.500000000, A.D. 2002-Apr-01 00:00:00.0000,  1.178706771498403E-01,  2.040867509817307E+01,  2.504931323306295E-03,
2452372.500000000, A.D. 2002-Apr-08 00:00:00.0000,  1.179718564268922E-01,  2.042619374693247E+01,  2.500397846428964E-03,
2452379.500000000, A.D. 2002-Apr-15 00:00:00.0000,  1.180728525271901E-01,  2.044368067962007E+01,  2.495869297551656E-03,
2452386.500000000, A.D. 2002-Apr-22 00:00:00.0000,  1.181736656120006E-01,  2.046113592415836E+01,  2.491343852667944E-03,
2452393.500000000, A.D. 2002-Apr-29 00:00:00.0000,  1.182742957971354E-01,  2.047855950059946E+01,  2.486821492084823E-03,
2452400.500000000, A.D. 2002-May-06 00:00:00.0000,  1.183747432398521E-01,  2.049595143617171E+01,  2.482303864766837E-03,
2452407.500000000, A.D. 2002-May-13 00:00:00.0000,  1.184750081562510E-01,  2.051331176829172E+01,  2.477792037491037E-03,
2452414.500000000, A.D. 2002-May-20 00:00:00.0000,  1.185750907901438E-01,  2.053064053917414E+01,  2.473286410890460E-03,
2452421.500000000, A.D. 2002-May-27 00:00:00.0000,  1.186749913970200E-01,  2.054793779305567E+01,  2.468787219462566E-03,
2452428.500000000, A.D. 2002-Jun-03 00:00:00.0000,  1.187747102422492E-01,  2.056520357588357E+01,  2.464294732291980E-03,
2452435.500000000, A.D. 2002-Jun-10 00:00:00.0000,  1.188742476036110E-01,  2.058243793575392E+01,  2.459809296144123E-03,
